{
  "norad_id": 56013,
  "name": "STARLINK-5941",
  "history": [
    {
      "epoch": "2026-04-11T16:07:24.638016Z",
      "apogee_km": 488.99170103319375,
      "perigee_km": 487.148811005678,
      "latitude_deg": 5.361368536110126e-05,
      "longitude_deg": 151.58135142640688,
      "height_km": 487.85085128013884,
      "semi_major_axis_km": 6866.207256019436,
      "eccentricity": 0.0001342,
      "inclination_deg": 43.0016,
      "raan_deg": 233.3219,
      "arg_perigee_deg": 269.7759,
      "mean_anomaly_deg": 90.2939,
      "mean_motion_rev_day": 15.2590466
    },
    {
      "epoch": "2026-04-13T01:06:51.863040Z",
      "apogee_km": 488.94748280747626,
      "perigee_km": 487.1762781442703,
      "latitude_deg": -1.997109182587792e-05,
      "longitude_deg": 7.620046415056191,
      "height_km": 487.8077145584997,
      "semi_major_axis_km": 6866.198880475873,
      "eccentricity": 0.00012898,
      "inclination_deg": 43.002,
      "raan_deg": 225.579,
      "arg_perigee_deg": 272.017,
      "mean_anomaly_deg": 88.0533,
      "mean_motion_rev_day": 15.25907452
    },
    {
      "epoch": "2026-04-14T14:49:05.647872Z",
      "apogee_km": 488.93074222639916,
      "perigee_km": 487.2018322386739,
      "latitude_deg": 9.77040574150069e-06,
      "longitude_deg": 151.664101583522,
      "height_km": 487.8067694050306,
      "semi_major_axis_km": 6866.203287232536,
      "eccentricity": 0.0001259,
      "inclination_deg": 43.0021,
      "raan_deg": 216.7289,
      "arg_perigee_deg": 272.4202,
      "mean_anomaly_deg": 87.6505,
      "mean_motion_rev_day": 15.25905983
    },
    {
      "epoch": "2026-04-15T14:22:59.189952Z",
      "apogee_km": 488.9234469977782,
      "perigee_km": 487.19865804698475,
      "latitude_deg": -7.240429206684464e-06,
      "longitude_deg": 151.69151828319622,
      "height_km": 487.82198689286093,
      "semi_major_axis_km": 6866.198052522381,
      "eccentricity": 0.0001256,
      "inclination_deg": 43.0023,
      "raan_deg": 211.1972,
      "arg_perigee_deg": 271.0678,
      "mean_anomaly_deg": 89.0029,
      "mean_motion_rev_day": 15.25907728
    },
    {
      "epoch": "2026-04-16T13:56:52.753632Z",
      "apogee_km": 488.90333315863427,
      "perigee_km": 487.2156220644374,
      "latitude_deg": -1.2136434061123958e-05,
      "longitude_deg": 151.71935777923946,
      "height_km": 487.8279570506404,
      "semi_major_axis_km": 6866.196477611536,
      "eccentricity": 0.0001229,
      "inclination_deg": 43.0019,
      "raan_deg": 205.666,
      "arg_perigee_deg": 270.5743,
      "mean_anomaly_deg": 89.4967,
      "mean_motion_rev_day": 15.25908253
    },
    {
      "epoch": "2026-04-17T15:05:02.075136Z",
      "apogee_km": 488.91116240612155,
      "perigee_km": 487.21933017263564,
      "latitude_deg": 1.0218403405920593e-05,
      "longitude_deg": 127.74854787533158,
      "height_km": 487.85632502978547,
      "semi_major_axis_km": 6866.202246289378,
      "eccentricity": 0.0001232,
      "inclination_deg": 43.002,
      "raan_deg": 199.7663,
      "arg_perigee_deg": 269.0427,
      "mean_anomaly_deg": 91.0283,
      "mean_motion_rev_day": 15.2590633
    },
    {
      "epoch": "2026-04-18T13:04:39.931104Z",
      "apogee_km": 488.88898360567873,
      "perigee_km": 487.22187208419746,
      "latitude_deg": 5.87311922878098e-06,
      "longitude_deg": 151.77505518931775,
      "height_km": 487.8451232948031,
      "semi_major_axis_km": 6866.192427844938,
      "eccentricity": 0.0001214,
      "inclination_deg": 43.0022,
      "raan_deg": 194.6038,
      "arg_perigee_deg": 269.1241,
      "mean_anomaly_deg": 90.9471,
      "mean_motion_rev_day": 15.25909603
    },
    {
      "epoch": "2026-04-19T12:38:33.723744Z",
      "apogee_km": 488.8248310788704,
      "perigee_km": 487.3083613526096,
      "latitude_deg": 2.990845850740511e-05,
      "longitude_deg": 151.80266635820124,
      "height_km": 487.87369746207503,
      "semi_major_axis_km": 6866.20359621574,
      "eccentricity": 0.00011043,
      "inclination_deg": 43.0017,
      "raan_deg": 189.0733,
      "arg_perigee_deg": 267.7095,
      "mean_anomaly_deg": 92.363,
      "mean_motion_rev_day": 15.2590588
    },
    {
      "epoch": "2026-04-20T05:55:25.058784Z",
      "apogee_km": 488.97540165250393,
      "perigee_km": 487.1448734956275,
      "latitude_deg": -3.125376214964913e-05,
      "longitude_deg": -112.17789843358042,
      "height_km": 487.8825844369055,
      "semi_major_axis_km": 6866.197137574066,
      "eccentricity": 0.0001333,
      "inclination_deg": 43.0022,
      "raan_deg": 185.0164,
      "arg_perigee_deg": 267.1571,
      "mean_anomaly_deg": 92.9127,
      "mean_motion_rev_day": 15.25908033
    },
    {
      "epoch": "2026-04-21T11:46:20.904672Z",
      "apogee_km": 488.9253240999151,
      "perigee_km": 487.24337451818883,
      "latitude_deg": 3.03087161493705e-05,
      "longitude_deg": 151.85772451343107,
      "height_km": 487.76609999855987,
      "semi_major_axis_km": 6866.221349309052,
      "eccentricity": 0.00012248,
      "inclination_deg": 43.0033,
      "raan_deg": 178.0105,
      "arg_perigee_deg": 276.5096,
      "mean_anomaly_deg": 83.5616,
      "mean_motion_rev_day": 15.25899962
    },
    {
      "epoch": "2026-04-22T09:45:59.171904Z",
      "apogee_km": 488.96345126230517,
      "perigee_km": 487.17713877243386,
      "latitude_deg": 1.725785222985519e-06,
      "longitude_deg": 175.8824849425356,
      "height_km": 487.8550565975465,
      "semi_major_axis_km": 6866.20729501737,
      "eccentricity": 0.00013008,
      "inclination_deg": 43.0035,
      "raan_deg": 172.848,
      "arg_perigee_deg": 269.5132,
      "mean_anomaly_deg": 90.557,
      "mean_motion_rev_day": 15.25904647
    },
    {
      "epoch": "2026-04-23T10:54:08.278272Z",
      "apogee_km": 488.92480549179527,
      "perigee_km": 487.2009773470545,
      "latitude_deg": -1.2821553768001345e-05,
      "longitude_deg": 151.9128307747987,
      "height_km": 487.8467091549696,
      "semi_major_axis_km": 6866.199891419425,
      "eccentricity": 0.00012553,
      "inclination_deg": 43.0034,
      "raan_deg": 166.9486,
      "arg_perigee_deg": 269.5551,
      "mean_anomaly_deg": 90.5156,
      "mean_motion_rev_day": 15.25907115
    },
    {
      "epoch": "2026-04-24T20:00:01.999008Z",
      "apogee_km": 483.77025563538973,
      "perigee_km": 482.25119752872433,
      "latitude_deg": 20.483745460316594,
      "longitude_deg": 29.77686168616285,
      "height_km": 482.5873675119643,
      "semi_major_axis_km": 6861.147726582057,
      "eccentricity": 0.0001107,
      "inclination_deg": 43.0008,
      "raan_deg": 159.1694,
      "arg_perigee_deg": 286.2065,
      "mean_anomaly_deg": 104.5482,
      "mean_motion_rev_day": 15.27592814
    },
    {
      "epoch": "2026-04-25T20:00:01.000224Z",
      "apogee_km": 483.75943352054855,
      "perigee_km": 482.2623310526342,
      "latitude_deg": 28.14826509539718,
      "longitude_deg": 144.88197615054133,
      "height_km": 483.9355002242735,
      "semi_major_axis_km": 6861.147882286591,
      "eccentricity": 0.0001091,
      "inclination_deg": 43.0008,
      "raan_deg": 153.5221,
      "arg_perigee_deg": 284.5444,
      "mean_anomaly_deg": 211.8827,
      "mean_motion_rev_day": 15.27592762
    },
    {
      "epoch": "2026-04-26T22:00:00.999936Z",
      "apogee_km": 483.6780634314282,
      "perigee_km": 482.50053977354764,
      "latitude_deg": -12.964842611007933,
      "longitude_deg": -51.72665417723449,
      "height_km": 485.23807262478834,
      "semi_major_axis_km": 6861.226301602487,
      "eccentricity": 8.581e-05,
      "inclination_deg": 43.0004,
      "raan_deg": 147.4038,
      "arg_perigee_deg": 271.1965,
      "mean_anomaly_deg": 69.7814,
      "mean_motion_rev_day": 15.27566573
    },
    {
      "epoch": "2026-04-27T20:00:03.000384Z",
      "apogee_km": 483.68368227513656,
      "perigee_km": 482.4088744220189,
      "latitude_deg": -8.237427761633638,
      "longitude_deg": -22.484558194035447,
      "height_km": 484.15381467587537,
      "semi_major_axis_km": 6861.183278348577,
      "eccentricity": 9.29e-05,
      "inclination_deg": 43.0002,
      "raan_deg": 142.2267,
      "arg_perigee_deg": 267.3555,
      "mean_anomaly_deg": 80.6619,
      "mean_motion_rev_day": 15.27580941
    },
    {
      "epoch": "2026-04-28T18:01:22.838592Z",
      "apogee_km": 483.5149137017934,
      "perigee_km": 482.4034161230784,
      "latitude_deg": 1.5154731878681914e-05,
      "longitude_deg": 9.976230487916471,
      "height_km": 482.6534280916887,
      "semi_major_axis_km": 6861.096164912436,
      "eccentricity": 8.1e-05,
      "inclination_deg": 42.9997,
      "raan_deg": 137.0433,
      "arg_perigee_deg": 278.4736,
      "mean_anomaly_deg": 81.6024,
      "mean_motion_rev_day": 15.27610034
    },
    {
      "epoch": "2026-04-29T09:42:57.483072Z",
      "apogee_km": 483.5360406746049,
      "perigee_km": 482.57478761738275,
      "latitude_deg": 4.0300836441957184e-05,
      "longitude_deg": 130.24581874772235,
      "height_km": 482.7527574072038,
      "semi_major_axis_km": 6861.192414145994,
      "eccentricity": 7.005e-05,
      "inclination_deg": 43.0011,
      "raan_deg": 133.3517,
      "arg_perigee_deg": 279.4444,
      "mean_anomaly_deg": 80.6329,
      "mean_motion_rev_day": 15.2757789
    },
    {
      "epoch": "2026-04-30T07:41:08.987424Z",
      "apogee_km": 483.56898963747335,
      "perigee_km": 482.5638233384234,
      "latitude_deg": -1.084600102393497e-05,
      "longitude_deg": 154.62515922186532,
      "height_km": 482.78855147284077,
      "semi_major_axis_km": 6861.203406487948,
      "eccentricity": 7.325e-05,
      "inclination_deg": 43.0016,
      "raan_deg": 128.1813,
      "arg_perigee_deg": 276.1861,
      "mean_anomaly_deg": 83.8907,
      "mean_motion_rev_day": 15.27574219
    }
  ]
}